QIANFAN-57              
1 62787U 25016C   25243.94933495  .00000105  00000+0  14421-3 0  9996
2 62787  88.9806 113.8108 0002699  78.8736 281.2718 13.50962537 33329
QIANFAN-58              
1 62788U 25016D   25243.92054150  .00000052  00000+0  61926-4 0  9991
2 62788  88.9775 113.6773 0012188 284.4636  75.5162 13.50969049 33365
QIANFAN-59              
1 62789U 25016E   25243.93285457  .00000118  00000+0  16392-3 0  9998
2 62789  88.9799 113.7223 0013150 287.7605  72.2111 13.50965925 33362
QIANFAN-60              
1 62790U 25016F   25243.92448203  .00000117  00000+0  16271-3 0  9994
2 62790  88.9780 113.7221 0013572 285.1596  74.8053 13.50963162 33343
QIANFAN-61              
1 62791U 25016G   25243.93694422  .00000113  00000+0  15644-3 0  9991
2 62791  88.9848 113.8088 0013015 283.6938  76.2764 13.50968786 33360
QIANFAN-62              
1 62792U 25016H   25243.94098533  .00000108  00000+0  14866-3 0  9993
2 62792  88.9794 113.7324 0014394 283.7893  76.1656 13.50962787 33358
QIANFAN-63              
1 62793U 25016J   25243.95340453  .00000103  00000+0  14102-3 0  9994
2 62793  88.9800 113.6728 0014277 288.8584  71.1018 13.50959791 33399
QIANFAN-64              
1 62794U 25016K   25243.87102503  .00000114  00000+0  15877-3 0  9990
2 62794  88.9787 113.6752 0012017 282.5905  77.3902 13.50962416 33375
